IRIDIUM 171             
1 43929U 19002H   23290.54165134  .00000625  00000+0  21610-3 0  9999
2 43929  86.4013  40.6721 0002240  96.8313 263.3138 14.34216711249404
IRIDIUM 170             
1 43930U 19002J   23290.39177718  .00002083  00000+0  32626-3 0  9994
2 43930  86.6135  40.5910 0002152  93.0911 267.0552 14.72265045255984
IRIDIUM 167             
1 43931U 19002K   23290.53531037  .00000656  00000+0  22704-3 0  9999
2 43931  86.4002  40.4902 0002103  97.9199 262.2236 14.34218423249405
IRIDIUM 181             
1 56726U 23068S   23290.45942428  .00000390  00000+0  10931-3 0  9997
2 56726  86.8587  82.4466 0001934 128.0052 232.1324 14.43589402 21971
IRIDIUM 177             
1 56727U 23068T   23290.45366189  .00002883  00000+0  37590-3 0  9991
2 56727  86.1958  71.0610 0002346  90.6722 269.4767 14.80230735 22325
IRIDIUM 174             
1 56728U 23068U   23290.44823252  .00002832  00000+0  36925-3 0  9995
2 56728  86.1963  71.1474 0002228  85.2108 274.9367 14.80230760 22323
IRIDIUM 178             
1 56729U 23068V   23290.71315177  .00002929  00000+0  38194-3 0  9995
2 56729  86.5752  76.9500 0002441  86.5191 273.6309 14.80233067 22369
IRIDIUM 179             
1 56730U 23068W   23290.43736216  .00002698  00000+0  35168-3 0  9998
2 56730  86.6759  78.1332 0002341  90.0545 270.0944 14.80231070 22322
